[{"OBJECT_NAME":"BEIDOU-3 G3 (PRN 143)","OBJECT_ID":"2020-040A","EPOCH":"2026-03-02T23:22:36.006240","MEAN_MOTION":1.00276035,"ECCENTRICITY":0.0004228,"INCLINATION":2.1864,"RA_OF_ASC_NODE":67.1119,"ARG_OF_PERICENTER":315.1868,"MEAN_ANOMALY":239.5484,"EPHEMERIS_TYPE":0,"CLASSIFICATION_TYPE":"U","NORAD_CAT_ID":45807,"ELEMENT_SET_NO":999,"REV_AT_EPOCH":2100,"BSTAR":0,"MEAN_MOTION_DOT":-3.69e-6,"MEAN_MOTION_DDOT":0},{"OBJECT_NAME":"GALAXY 30 (WAAS/PRN 135)","OBJECT_ID":"2020-056C","EPOCH":"2026-03-03T03:49:38.807616","MEAN_MOTION":1.00272235,"ECCENTRICITY":0.0002205,"INCLINATION":0.0168,"RA_OF_ASC_NODE":121.9575,"ARG_OF_PERICENTER":218.1627,"MEAN_ANOMALY":113.197,"EPHEMERIS_TYPE":0,"CLASSIFICATION_TYPE":"U","NORAD_CAT_ID":46114,"ELEMENT_SET_NO":999,"REV_AT_EPOCH":2022,"BSTAR":0,"MEAN_MOTION_DOT":2.1e-7,"MEAN_MOTION_DDOT":0},{"OBJECT_NAME":"QZS-1R (QZSS/PRN 196)","OBJECT_ID":"2021-096A","EPOCH":"2026-03-01T09:13:38.436096","MEAN_MOTION":1.00291836,"ECCENTRICITY":0.07470272,"INCLINATION":37.2374,"RA_OF_ASC_NODE":81.1754,"ARG_OF_PERICENTER":269.6443,"MEAN_ANOMALY":80.6815,"EPHEMERIS_TYPE":0,"CLASSIFICATION_TYPE":"U","NORAD_CAT_ID":49336,"ELEMENT_SET_NO":999,"REV_AT_EPOCH":1592,"BSTAR":0,"MEAN_MOTION_DOT":-2.59e-6,"MEAN_MOTION_DDOT":0},{"OBJECT_NAME":"QZS-6 (QZSS/PRN 200)","OBJECT_ID":"2025-023A","EPOCH":"2026-03-03T02:31:33.888576","MEAN_MOTION":1.00270372,"ECCENTRICITY":0.0001898,"INCLINATION":0.0441,"RA_OF_ASC_NODE":303.3589,"ARG_OF_PERICENTER":30.655,"MEAN_ANOMALY":315.2513,"EPHEMERIS_TYPE":0,"CLASSIFICATION_TYPE":"U","NORAD_CAT_ID":62876,"ELEMENT_SET_NO":999,"REV_AT_EPOCH":389,"BSTAR":0,"MEAN_MOTION_DOT":-2.49e-6,"MEAN_MOTION_DDOT":0}]
